[{"OBJECT_NAME":"STARLINK-1771","OBJECT_ID":"2020-062BM","EPOCH":"2026-03-09T23:29:32.152704","MEAN_MOTION":15.46599985,"ECCENTRICITY":0.00025443,"INCLINATION":53.043,"RA_OF_ASC_NODE":344.5786,"ARG_OF_PERICENTER":249.4105,"MEAN_ANOMALY":110.6628,"EPHEMERIS_TYPE":0,"CLASSIFICATION_TYPE":"U","NORAD_CAT_ID":46384,"ELEMENT_SET_NO":999,"REV_AT_EPOCH":30478,"BSTAR":0.0015540489,"MEAN_MOTION_DOT":0.00079024,"MEAN_MOTION_DDOT":0},{"OBJECT_NAME":"TRANSPORTER-12 OBJECT M","OBJECT_ID":"2025-009M","EPOCH":"2026-03-09T18:04:47.718048","MEAN_MOTION":15.47061993,"ECCENTRICITY":0.00032421,"INCLINATION":97.3973,"RA_OF_ASC_NODE":155.5568,"ARG_OF_PERICENTER":277.4254,"MEAN_ANOMALY":82.6627,"EPHEMERIS_TYPE":0,"CLASSIFICATION_TYPE":"U","NORAD_CAT_ID":62620,"ELEMENT_SET_NO":999,"REV_AT_EPOCH":6401,"BSTAR":0.0012092912,"MEAN_MOTION_DOT":0.00061492,"MEAN_MOTION_DDOT":0}]
